[{"OBJECT_NAME":"STARLINK-3129","OBJECT_ID":"2021-104AX","EPOCH":"2026-03-09T16:20:11.975424","MEAN_MOTION":15.08844076,"ECCENTRICITY":0.00011327,"INCLINATION":53.2176,"RA_OF_ASC_NODE":219.2491,"ARG_OF_PERICENTER":81.7118,"MEAN_ANOMALY":278.4002,"EPHEMERIS_TYPE":0,"CLASSIFICATION_TYPE":"U","NORAD_CAT_ID":49453,"ELEMENT_SET_NO":999,"REV_AT_EPOCH":23877,"BSTAR":-3.1337388e-5,"MEAN_MOTION_DOT":-7.87e-6,"MEAN_MOTION_DDOT":0},{"OBJECT_NAME":"OBJECT H","OBJECT_ID":"2025-292H","EPOCH":"2026-03-09T22:24:53.558208","MEAN_MOTION":15.06373042,"ECCENTRICITY":0.00142604,"INCLINATION":97.6442,"RA_OF_ASC_NODE":145.7846,"ARG_OF_PERICENTER":348.9217,"MEAN_ANOMALY":11.1694,"EPHEMERIS_TYPE":0,"CLASSIFICATION_TYPE":"U","NORAD_CAT_ID":67000,"ELEMENT_SET_NO":999,"REV_AT_EPOCH":1338,"BSTAR":0.0005462937,"MEAN_MOTION_DOT":8.001e-5,"MEAN_MOTION_DDOT":0}]
